{"type": "FeatureCollection", "features": [ {"type": "Feature", "properties": {"norad_id": 57401, "name": "TIANMU-1 09", "group": "weather", "lat": -9.043166983237304, "lon": 32.59197263006507, "alt_km": 487.2088079669602, "timestamp": "2025-12-08T03:50:06.649021+00:00", "meta": {"OBJECT_NAME": "TIANMU-1 09", "OBJECT_ID": "2023-101C", "EPOCH": "2025-12-07T05:52:15.149856", "MEAN_MOTION": 15.27962965, "ECCENTRICITY": 0.00068022, "INCLINATION": 97.2823, "RA_OF_ASC_NODE": 30.5315, "ARG_OF_PERICENTER": 98.7343, "MEAN_ANOMALY": 261.4668, "EPHEMERIS_TYPE": 0, "CLASSIFICATION_TYPE": "U", "NORAD_CAT_ID": 57401, "ELEMENT_SET_NO": 999, "REV_AT_EPOCH": 13231, "BSTAR": 0.00040270883, "MEAN_MOTION_DOT": 0.00010927, "MEAN_MOTION_DDOT": 0}, "tle": {"line1": "1 57401U 23101C   25341.24461979  .00010927  00000+0  40271-3 0  9996", "line2": "2 57401  97.2823  30.5315 0006802  98.7343 261.4668 15.27962965132312"}}, "geometry": {"type": "Point", "coordinates": [32.59197263006507, -9.043166983237304]}}, {"type": "Feature", "properties": {"norad_id": 57402, "name": "TIANMU-1 10", "group": "weather", "lat": 16.497613056102033, "lon": -145.55633801264884, "alt_km": 480.2920223815372, "timestamp": "2025-12-08T03:50:06.649045+00:00", "meta": {"OBJECT_NAME": "TIANMU-1 10", "OBJECT_ID": "2023-101D", "EPOCH": "2025-12-07T06:41:28.745952", "MEAN_MOTION": 15.27955208, "ECCENTRICITY": 0.00085707, "INCLINATION": 97.2904, "RA_OF_ASC_NODE": 31.4089, "ARG_OF_PERICENTER": 99.2803, "MEAN_ANOMALY": 260.9406, "EPHEMERIS_TYPE": 0, "CLASSIFICATION_TYPE": "U", "NORAD_CAT_ID": 57402, "ELEMENT_SET_NO": 999, "REV_AT_EPOCH": 13231, "BSTAR": 0.00042923581, "MEAN_MOTION_DOT": 0.00011655, "MEAN_MOTION_DDOT": 0}, "tle": {"line1": "1 57402U 23101D   25341.27880493  .00011655  00000+0  42924-3 0  9992", "line2": "2 57402  97.2904  31.4089 0008570  99.2803 260.9406 15.27955208132318"}}, "geometry": {"type": "Point", "coordinates": [-145.55633801264884, 16.497613056102033]}}, {"type": "Feature", "properties": {"norad_id": 57490, "name": "FENGYUN 3F", "group": "weather", "lat": 41.881060925296616, "lon": 42.62706724240834, "alt_km": 821.946707242103, "timestamp": "2025-12-08T03:50:06.649057+00:00", "meta": {"OBJECT_NAME": "FENGYUN 3F", "OBJECT_ID": "2023-111A", "EPOCH": "2025-12-07T05:38:59.590752", "MEAN_MOTION": 14.19891454, "ECCENTRICITY": 6.661e-05, "INCLINATION": 98.7092, "RA_OF_ASC_NODE": 49.6175, "ARG_OF_PERICENTER": 91.4991, "MEAN_ANOMALY": 268.6262, "EPHEMERIS_TYPE": 0, "CLASSIFICATION_TYPE": "U", "NORAD_CAT_ID": 57490, "ELEMENT_SET_NO": 999, "REV_AT_EPOCH": 12162, "BSTAR": 0.00011935179, "MEAN_MOTION_DOT": 2.1e-06, "MEAN_MOTION_DDOT": 0}, "tle": {"line1": "1 57490U 23111A   25341.23541193  .00000210  00000+0  11935-3 0  9990", "line2": "2 57490  98.7092  49.6175 0000666  91.4991 268.6262 14.19891454121625"}}, "geometry": {"type": "Point", "coordinates": [42.62706724240834, 41.881060925296616]}}, {"type": "Feature", "properties": {"norad_id": 58584, "name": "ARKTIKA-M 2", "group": "weather", "lat": 58.80452390540777, "lon": -61.151049322207086, "alt_km": 33863.77975493327, "timestamp": "2025-12-08T03:50:06.649070+00:00", "meta": {"OBJECT_NAME": "ARKTIKA-M 2", "OBJECT_ID": "2023-198A", "EPOCH": "2025-12-06T20:18:59.579424", "MEAN_MOTION": 2.00604738, "ECCENTRICITY": 0.68644701, "INCLINATION": 63.2244, "RA_OF_ASC_NODE": 175.5329, "ARG_OF_PERICENTER": 268.127, "MEAN_ANOMALY": 18.8311, "EPHEMERIS_TYPE": 0, "CLASSIFICATION_TYPE": "U", "NORAD_CAT_ID": 58584, "ELEMENT_SET_NO": 999, "REV_AT_EPOCH": 1446, "BSTAR": 0, "MEAN_MOTION_DOT": 1.78e-06, "MEAN_MOTION_DDOT": 0}, "tle": {"line1": "1 58584U 23198A   25340.84652291  .00000178  00000+0  00000+0 0  9998", "line2": "2 58584  63.2244 175.5329 6864470 268.1270  18.8311  2.00604738 14463"}}, "geometry": {"type": "Point", "coordinates": [-61.151049322207086, 58.80452390540777]}}, {"type": "Feature", "properties": {"norad_id": 58645, "name": "TIANMU-1 11", "group": "weather", "lat": 38.93097090266064, "lon": -4.129945422075809, "alt_km": 487.4068108563579, "timestamp": "2025-12-08T03:50:06.649085+00:00", "meta": {"OBJECT_NAME": "TIANMU-1 11", "OBJECT_ID": "2023-205A", "EPOCH": "2025-12-07T07:11:05.016768", "MEAN_MOTION": 15.24500632, "ECCENTRICITY": 0.00084181, "INCLINATION": 97.3604, "RA_OF_ASC_NODE": 1.0185, "ARG_OF_PERICENTER": 332.2497, "MEAN_ANOMALY": 27.829, "EPHEMERIS_TYPE": 0, "CLASSIFICATION_TYPE": "U", "NORAD_CAT_ID": 58645, "ELEMENT_SET_NO": 999, "REV_AT_EPOCH": 10826, "BSTAR": 0.00037953704, "MEAN_MOTION_DOT": 9.272e-05, "MEAN_MOTION_DDOT": 0}, "tle": {"line1": "1 58645U 23205A   25341.29936362  .00009272  00000+0  37954-3 0  9995", "line2": "2 58645  97.3604   1.0185 0008418 332.2497  27.8290 15.24500632108268"}}, "geometry": {"type": "Point", "coordinates": [-4.129945422075809, 38.93097090266064]}}, {"type": "Feature", "properties": {"norad_id": 58646, "name": "TIANMU-1 12", "group": "weather", "lat": -71.95984209005972, "lon": 158.29131447232382, "alt_km": 497.66580163326853, "timestamp": "2025-12-08T03:50:06.649096+00:00", "meta": {"OBJECT_NAME": "TIANMU-1 12", "OBJECT_ID": "2023-205B", "EPOCH": "2025-12-07T06:14:46.523616", "MEAN_MOTION": 15.24415907, "ECCENTRICITY": 0.00062541, "INCLINATION": 97.3591, "RA_OF_ASC_NODE": 0.7874, "ARG_OF_PERICENTER": 316.7947, "MEAN_ANOMALY": 43.28, "EPHEMERIS_TYPE": 0, "CLASSIFICATION_TYPE": "U", "NORAD_CAT_ID": 58646, "ELEMENT_SET_NO": 999, "REV_AT_EPOCH": 10824, "BSTAR": 0.00040919586, "MEAN_MOTION_DOT": 9.973e-05, "MEAN_MOTION_DDOT": 0}, "tle": {"line1": "1 58646U 23205B   25341.26026069  .00009973  00000+0  40920-3 0  9992", "line2": "2 58646  97.3591   0.7874 0006254 316.7947  43.2800 15.24415907108245"}}, "geometry": {"type": "Point", "coordinates": [158.29131447232382, -71.95984209005972]}}, {"type": "Feature", "properties": {"norad_id": 58647, "name": "TIANMU-1 13", "group": "weather", "lat": 67.58719377504282, "lon": -16.399715721495955, "alt_km": 489.14602015787113, "timestamp": "2025-12-08T03:50:06.649106+00:00", "meta": {"OBJECT_NAME": "TIANMU-1 13", "OBJECT_ID": "2023-205C", "EPOCH": "2025-12-07T05:28:45.574464", "MEAN_MOTION": 15.24421488, "ECCENTRICITY": 0.00061524, "INCLINATION": 97.3619, "RA_OF_ASC_NODE": 0.9546, "ARG_OF_PERICENTER": 292.2775, "MEAN_ANOMALY": 67.781, "EPHEMERIS_TYPE": 0, "CLASSIFICATION_TYPE": "U", "NORAD_CAT_ID": 58647, "ELEMENT_SET_NO": 999, "REV_AT_EPOCH": 10823, "BSTAR": 0.0003954949, "MEAN_MOTION_DOT": 9.638e-05, "MEAN_MOTION_DDOT": 0}, "tle": {"line1": "1 58647U 23205C   25341.22830526  .00009638  00000+0  39549-3 0  9993", "line2": "2 58647  97.3619   0.9546 0006152 292.2775  67.7810 15.24421488108231"}}, "geometry": {"type": "Point", "coordinates": [-16.399715721495955, 67.58719377504282]}}, {"type": "Feature", "properties": {"norad_id": 58648, "name": "TIANMU-1 14", "group": "weather", "lat": 19.69666149552679, "lon": -176.12679199406475, "alt_km": 496.07064737391283, "timestamp": "2025-12-08T03:50:06.649118+00:00", "meta": {"OBJECT_NAME": "TIANMU-1 14", "OBJECT_ID": "2023-205D", "EPOCH": "2025-12-07T05:04:46.121088", "MEAN_MOTION": 15.24405084, "ECCENTRICITY": 0.00070398, "INCLINATION": 97.3551, "RA_OF_ASC_NODE": 0.2922, "ARG_OF_PERICENTER": 297.086, "MEAN_ANOMALY": 62.9659, "EPHEMERIS_TYPE": 0, "CLASSIFICATION_TYPE": "U", "NORAD_CAT_ID": 58648, "ELEMENT_SET_NO": 999, "REV_AT_EPOCH": 10823, "BSTAR": 0.00040780986, "MEAN_MOTION_DOT": 9.938e-05, "MEAN_MOTION_DDOT": 0}, "tle": {"line1": "1 58648U 23205D   25341.21164492  .00009938  00000+0  40781-3 0  9998", "line2": "2 58648  97.3551   0.2922 0007039 297.0860  62.9659 15.24405084108233"}}, "geometry": {"type": "Point", "coordinates": [-176.12679199406475, 19.69666149552679]}}, {"type": "Feature", "properties": {"norad_id": 58660, "name": "TIANMU-1 19", "group": "weather", "lat": 0.21815435074486633, "lon": 93.17826724036232, "alt_km": 485.477092294861, "timestamp": "2025-12-08T03:50:06.649128+00:00", "meta": {"OBJECT_NAME": "TIANMU-1 19", "OBJECT_ID": "2023-208A", "EPOCH": "2025-12-07T05:49:35.120640", "MEAN_MOTION": 15.27700204, "ECCENTRICITY": 0.00040296, "INCLINATION": 97.4397, "RA_OF_ASC_NODE": 92.2918, "ARG_OF_PERICENTER": 277.8097, "MEAN_ANOMALY": 82.2684, "EPHEMERIS_TYPE": 0, "CLASSIFICATION_TYPE": "U", "NORAD_CAT_ID": 58660, "ELEMENT_SET_NO": 999, "REV_AT_EPOCH": 10798, "BSTAR": 0.00053114985, "MEAN_MOTION_DOT": 0.00014319, "MEAN_MOTION_DDOT": 0}, "tle": {"line1": "1 58660U 23208A   25341.24276760  .00014319  00000+0  53115-3 0  9994", "line2": "2 58660  97.4397  92.2918 0004029 277.8097  82.2684 15.27700204107985"}}, "geometry": {"type": "Point", "coordinates": [93.17826724036232, 0.21815435074486633]}}, {"type": "Feature", "properties": {"norad_id": 58661, "name": "TIANMU-1 20", "group": "weather", "lat": 54.24053784465824, "lon": 83.20459324910058, "alt_km": 476.71105961439116, "timestamp": "2025-12-08T03:50:06.649140+00:00", "meta": {"OBJECT_NAME": "TIANMU-1 20", "OBJECT_ID": "2023-208B", "EPOCH": "2025-12-07T05:36:18.278496", "MEAN_MOTION": 15.28891248, "ECCENTRICITY": 0.00063447, "INCLINATION": 97.4333, "RA_OF_ASC_NODE": 92.7248, "ARG_OF_PERICENTER": 289.1798, "MEAN_ANOMALY": 70.8755, "EPHEMERIS_TYPE": 0, "CLASSIFICATION_TYPE": "U", "NORAD_CAT_ID": 58661, "ELEMENT_SET_NO": 999, "REV_AT_EPOCH": 10805, "BSTAR": 0.0005035053, "MEAN_MOTION_DOT": 0.00014076, "MEAN_MOTION_DDOT": 0}, "tle": {"line1": "1 58661U 23208B   25341.23354489  .00014076  00000+0  50351-3 0  9998", "line2": "2 58661  97.4333  92.7248 0006344 289.1798  70.8755 15.28891248108054"}}, "geometry": {"type": "Point", "coordinates": [83.20459324910058, 54.24053784465824]}}]}